LANDSAT 9               
1 49260U 21088A   24226.44131679  .00001829  00000+0  41598-3 0  9990
2 49260  98.2281 295.3293 0001163  86.3944 273.7387 14.57105783153020
